id,category,satellite_name,tle_line1,tle_line2,inclination,eccentricity,period,perigee,apogee,epoch,raan,arg_perigee,mean_anomaly,mean_motion,semi_major_axis,velocity,orbit_type,satellite_age,bstar,rev_num,norad_number,ephemeris_type,intl_designator
6034,active,ONEWEB-0640,1 55804U 23029J   25017.55235701  .00000163  00000+0  40451-3 0  9997,2 55804  87.8987  32.2804 0000989  94.2680 265.8562 13.14500925 91672,87.8987,9.89e-05,109.5472793219982,1205.1845153070535,1206.684617564295,2025-01-17 13:15:23.645664,32.2804,94.268,13.14500925,13.14500925,7583.934566435674,7.249726105075315,LEO,2,0.00040451,9167,55804,0,23029J
6053,active,ONEWEB-0663,1 55823U 23029AD  25017.28812937  .00000025  00000+0  29389-4 0  9995,2 55823  87.9254  17.1142 0001492 100.4849 259.6452 13.20820595 93042,87.9254,0.0001492,109.02313345591041,1180.5963198565796,1182.8521415670239,2025-01-17 06:54:54.377568,17.1142,100.4849,13.20820595,13.20820595,7559.724230711801,7.261325602354362,LEO,2,2.9389e-05,9304,55823,0,23029AD
6069,active,HORUS 2,1 55844U 23032A   25017.56359095  .00013775  00000+0  58237-3 0  9993,2 55844  97.4063  96.5947 0006544  82.9206 277.2774 15.23320413102983,97.4063,0.0006544,94.53034225177154,491.47221755430746,500.4688702021358,2025-01-17 13:31:34.25808,96.5947,82.92060000000001,277.2774,15.23320413,6873.970543878222,7.6149149035921555,LEO,2,0.00058237,10298,55844,0,23032A
6100,active,STARLINK-5918,1 55939U 23037AB  25017.05862456  .00000550  00000+0  53927-4 0  9996,2 55939  69.9976 254.8924 0002832 261.7003  98.3835 14.98327077101575,69.9976,0.0002832,96.1071866153027,570.2336329088885,574.170227282094,2025-01-17 01:24:25.161984,254.8924,261.7003,98.3835,14.98327077,6950.201930095492,7.573038705889028,LEO,2,5.392700000000001e-05,10157,55939,0,23037AB
6116,active,STARLINK-5878,1 55955U 23037AT  25017.58411817 -.00000133  00000+0 -33426-5 0  9995,2 55955  69.9995 233.6385 0001981 277.6372  82.4562 14.98329332102140,69.9995,0.0001981,96.10704197306605,570.8181230591636,573.571790300999,2025-01-17 14:01:07.809888,233.6385,277.6372,82.4562,14.98329332,6950.194956680081,7.573042505058108,LEO,2,-3.3426000000000004e-06,10214,55955,0,23037AT
6131,active,TIANMU-1 05,1 55975U 23039C   25017.57753617  .00017121  00000+0  58871-3 0  9997,2 55975  97.4812 174.0798 0004392 151.3851 208.7631 15.30146663101534,97.4812,0.0004392,94.1086259781622,472.5012665376853,478.5213908888272,2025-01-17 13:51:39.125088,174.0798,151.3851,208.7631,15.30146663,6853.511328713256,7.626272518517142,LEO,2,0.00058871,10153,55975,0,23039C
6152,active,STARLINK-5801,1 56005U 23042V   25017.41134877  .00000960  00000+0  86136-4 0  9999,2 56005  43.0016 157.8501 0001114 244.6997 115.3730 15.02538594100291,43.0016,0.0001114,95.83780448304411,558.4357440270978,559.9813540918276,2025-01-17 09:52:20.533728,157.8501,244.69970000000004,115.373,15.02538594,6937.208549059463,7.580127533076422,LEO,2,8.6136e-05,10029,56005,0,23042V
6168,active,STARLINK-5907,1 56021U 23042AM  25016.71697784  .00000275  00000+0  35416-4 0  9994,2 56021  43.0022 149.0866 0001339 266.7356  93.3333 15.02536765100333,43.0022,0.0001339,95.83792114397946,558.2852857387907,560.1430716958521,2025-01-16 17:12:26.885376,149.0866,266.7356,93.3333,15.02536765,6937.214178717321,7.580124457379745,LEO,3,3.5416e-05,10033,56021,0,23042AM
6177,active,STARLINK-5781,1 56030U 23042AW  25017.61325746  .00000320  00000+0  38748-4 0  9992,2 56030  42.9993 143.7654 0001075 244.7270 115.3461 15.02535094100478,42.9993,0.0001075,95.83802772729113,558.4735709844008,559.9650731386437,2025-01-17 14:43:05.444544,143.7654,244.72699999999998,115.3461,15.02535094,6937.219322061523,7.5801216473780295,LEO,2,3.8748e-05,10047,56030,0,23042AW
6188,active,ONEWEB-0537,1 56046U 23043A   25017.55523161  .00000100  00000+0  22760-3 0  9996,2 56046  87.9114 331.5018 0002055  79.4874 280.6488 13.16593865 91110,87.9114,0.0002055,109.37313611133986,1196.3383243903818,1199.4520173056007,2025-01-17 13:19:32.011104,331.50180000000006,79.4874,13.16593865,13.16593865,7575.895170847991,7.253571720717633,LEO,2,0.0002276,9111,56046,0,23043A
6204,active,ONEWEB-0568,1 56062U 23043S   25017.37157203  .00000008  00000+0 -12924-4 0  9994,2 56062  87.9114 331.5401 0002034  75.7320 284.4037 13.16593540 91107,87.9114,0.0002034,109.37316311000583,1196.3554802521403,1199.4373549148122,2025-01-17 08:55:03.823392,331.5401,75.732,13.1659354,13.1659354,7575.896417583476,7.253571123871719,LEO,2,-1.2924e-05,9110,56062,0,23043S
6223,active,ONEWEB-0718,1 56081U 23043AM  25017.37088480 -.00000051  00000+0 -17023-3 0  9998,2 56081  87.9083   1.9064 0002307  89.1855 270.9540 13.15549751 88616,87.9083,0.0002307,109.45994242372062,1200.1544705382566,1203.651837853603,2025-01-17 08:54:04.44672,1.9064000000000003,89.1855,13.15549751,13.15549751,7579.90315419593,7.251653751702699,LEO,2,-0.00017023,8861,56081,0,23043AM
6239,active,STARLINK-6083,1 56109U 23046S   25017.07121094  .00000146  00000+0  25847-4 0  9995,2 56109  43.0025 262.5803 0001114 262.9695  97.1020 15.02534894 99399,43.0025,0.0001114,95.83804048413666,558.4471313618478,559.9927439639587,2025-01-17 01:42:32.625216,262.5803,262.9695,15.02534894,15.02534894,6937.219937662903,7.580121311052131,LEO,2,2.5847e-05,9939,56109,0,23046S
6255,active,STARLINK-6119,1 56125U 23046AK  25017.04051234  .00000201  00000+0  29932-4 0  9999,2 56125  43.0015 250.2303 0001158 272.6853  87.3857 15.02535252 99531,43.0015,0.0001158,95.83801764938556,558.4155057953503,560.0221656777076,2025-01-17 00:58:20.266176,250.23030000000003,272.6853,15.02535252,15.02535252,6937.2188357365285,7.580121913075469,LEO,2,2.9931999999999997e-05,9953,56125,0,23046AK
6276,active,PIESAT A,1 56153U 23047A   25015.55559902  .00010771  00000+0  59137-3 0  9992,2 56153  97.5013 205.0832 0001832  72.1439 287.9993 15.14305355 99464,97.5013,0.0001832,95.09310623814045,521.9609444735433,524.4895534047546,2025-01-15 13:20:03.755328,205.0832,72.1439,15.14305355,15.14305355,6901.225248939149,7.599863404237593,LEO,4,0.0005913699999999999,9946,56153,0,23047A
5931,active,STARLINK-5498,1 55633U 23021F   25017.60845036  .00000458  00000+0  46193-4 0  9990,2 55633  70.0004 173.5269 0002720 268.9969  91.0878 14.98331463105975,70.0004,0.000272,96.10690528494897,570.2979155055264,574.0788179770343,2025-01-17 14:36:10.111104,173.52690000000004,268.9969,91.0878,14.98331463,6950.18836674128,7.573046095311508,LEO,2,4.6193e-05,10597,55633,0,23021F
6328,active,STARLINK-30103,1 56290U 23056E   25017.18088332 -.00013091  00000+0 -95683-3 0  9995,2 56290  43.0032 313.1858 0001558 275.0619  85.0046 15.02494815 97372,43.0032,0.0001558,95.84059696072894,558.2624657708484,560.4241419443297,2025-01-17 04:20:28.318848,313.1858,275.0619,15.02494815,15.02494815,6937.3433038575895,7.580053912421429,LEO,2,-0.00095683,9737,56290,0,23056E
6341,active,STARLINK-30099,1 56304U 23056U   25017.19420126 -.00002436  00000+0 -16547-3 0  9996,2 56304  43.0072 313.1894 0001572 263.5898  96.4765 15.02507734 97435,43.0072,0.0001572,95.83977289530544,558.2129934829109,560.3940817151324,2025-01-17 04:39:38.988864,313.1894,263.5898,15.02507734,15.02507734,6937.303537599021,7.580075637717882,LEO,2,-0.00016547,9743,56304,0,23056U
6352,active,STARLINK-6033,1 56322U 23058F   25017.56446652  .00000399  00000+0  35689-4 0  9994,2 56322  97.6583  21.2485 0000937  89.2500 270.8831 15.01259415 95346,97.6583,9.37e-05,95.9194650579427,562.4982649573258,563.7990362144465,2025-01-17 13:32:49.907328,21.2485,89.25,15.01259415,15.01259415,6941.148650585886,7.5779758206472785,LEO,2,3.5689e-05,9534,56322,0,23058F
6363,active,STARLINK-5553,1 56333U 23058S   25017.60705149  .00000231  00000+0  22605-4 0  9999,2 56333  97.6574  21.3628 0004532  57.8505 302.3158 15.01258723 95703,97.6574,0.0004532,95.91950927168735,560.0050540495267,566.296513119768,2025-01-17 14:34:09.248736,21.3628,57.8505,15.01258723,15.01258723,6941.150783584648,7.577974656300415,LEO,2,2.2605e-05,9570,56333,0,23058S
6377,active,STARLINK-5829,1 56347U 23058AG  25017.58851859 -.00001168  00000+0 -86359-4 0  9999,2 56347  97.6563  21.3742 0001530  90.7233 269.4166 15.01256161 95708,97.6563,0.000153,95.91967296512563,562.0966833479861,564.2206779042572,2025-01-17 14:07:28.006176,21.3742,90.7233,15.01256161,15.01256161,6941.158680626121,7.577970345521774,LEO,2,-8.6359e-05,9570,56347,0,23058AG
6399,active,STARLINK-6158,1 56375U 23061B   25017.21001511  .00001285  00000+0  11020-3 0  9996,2 56375  43.0070 300.6459 0001397 275.3502  84.7181 15.02535898 94102,43.007,0.0001397,95.83797644480639,558.2477181517743,560.1859765389236,2025-01-17 05:02:25.305504,300.6459,275.3502,15.02535898,15.02535898,6937.2168473453485,7.58012299940784,LEO,2,0.00011020000000000001,9410,56375,0,23061B
6414,active,STARLINK-6300,1 56390U 23061S   25017.58334491  .01261863  00000+0  21232-1 0  9994,2 56390  42.9998 270.6953 0001692 261.5854 119.3290 15.48097493  5850,42.9998,0.0001692,93.0173975806574,421.2782481344466,423.5795132676749,2025-01-17 14:00:01.000224,270.6953,261.5854,15.48097493,15.48097493,6800.428880701061,7.655979049275876,LEO,2,0.021232,585,56390,0,23061S
6428,active,STARLINK-6285,1 56405U 23061AH  25017.14602355  .00003512  00000+0  27493-3 0  9991,2 56405  43.0031 288.0311 0001336 265.6035  94.4654 15.02534381 94249,43.0031,0.0001336,95.83807320546097,558.2947038864413,560.1483294756981,2025-01-17 03:30:16.43472,288.0311,265.6035,15.02534381,15.02534381,6937.221516681069,7.580120448376065,LEO,2,0.00027493,9424,56405,0,23061AH
6450,active,STARLINK-5724,1 56427U 23061BF  25017.43549417  .00001393  00000+0  11816-3 0  9993,2 56427  43.0032 273.7399 0001175 252.8652 107.2062 15.02532713 94439,43.0032,0.0001175,95.8381795977576,558.4115266733579,560.0417749362978,2025-01-17 10:27:06.696288,273.7399,252.8652,15.02532713,15.02532713,6937.226650804828,7.580117643416269,LEO,2,0.00011816000000000001,9443,56427,0,23061BF
